CCSDS_OMM_VERS = 2.0
CREATION_DATE  = 
ORIGINATOR     = 

OBJECT_NAME    = YOTSUBA-KULOVER
OBJECT_ID      = 1998-067XN
CENTER_NAME    = EARTH
REF_FRAME      = TEME
TIME_SYSTEM    = UTC
MEAN_ELEMENT_THEORY = SGP/SGP4

EPOCH          = 2026-02-25T03:58:05.789856
MEAN_MOTION    = 15.75536493
ECCENTRICITY   = .0005977
INCLINATION    = 51.6225
RA_OF_ASC_NODE = 121.9980
ARG_OF_PERICENTER = 359.7830
MEAN_ANOMALY   = 0.3166

EPHEMERIS_TYPE = 0
CLASSIFICATION_TYPE = U
NORAD_CAT_ID   = 65941
ELEMENT_SET_NO = 999
REV_AT_EPOCH   = 2152
BSTAR          = .85104E-3
MEAN_MOTION_DOT = .133972E-2
MEAN_MOTION_DDOT = 0

CCSDS_OMM_VERS = 2.0
CREATION_DATE  = 
ORIGINATOR     = 

OBJECT_NAME    = BOTAN
OBJECT_ID      = 1998-067XP
CENTER_NAME    = EARTH
REF_FRAME      = TEME
TIME_SYSTEM    = UTC
MEAN_ELEMENT_THEORY = SGP/SGP4

EPOCH          = 2026-02-25T03:53:43.178784
MEAN_MOTION    = 16.01837079
ECCENTRICITY   = .0009704
INCLINATION    = 51.6131
RA_OF_ASC_NODE = 115.8662
ARG_OF_PERICENTER = 16.1128
MEAN_ANOMALY   = 344.0189

EPHEMERIS_TYPE = 0
CLASSIFICATION_TYPE = U
NORAD_CAT_ID   = 65942
ELEMENT_SET_NO = 999
REV_AT_EPOCH   = 2160
BSTAR          = .14499E-2
MEAN_MOTION_DOT = .847599E-2
MEAN_MOTION_DDOT = .35833E-3

CCSDS_OMM_VERS = 2.0
CREATION_DATE  = 
ORIGINATOR     = 

OBJECT_NAME    = E-KAGAKU-1
OBJECT_ID      = 1998-067XQ
CENTER_NAME    = EARTH
REF_FRAME      = TEME
TIME_SYSTEM    = UTC
MEAN_ELEMENT_THEORY = SGP/SGP4

EPOCH          = 2026-02-24T11:16:36.442272
MEAN_MOTION    = 15.75143976
ECCENTRICITY   = .00060531
INCLINATION    = 51.6247
RA_OF_ASC_NODE = 125.6186
ARG_OF_PERICENTER = 5.4532
MEAN_ANOMALY   = 354.6532

EPHEMERIS_TYPE = 0
CLASSIFICATION_TYPE = U
NORAD_CAT_ID   = 65943
ELEMENT_SET_NO = 999
REV_AT_EPOCH   = 2141
BSTAR          = .9336806E-3
MEAN_MOTION_DOT = .144724E-2
MEAN_MOTION_DDOT = 0

CCSDS_OMM_VERS = 2.0
CREATION_DATE  = 
ORIGINATOR     = 

OBJECT_NAME    = HRC MONOBLOCK CAMERA
OBJECT_ID      = 1998-067XR
CENTER_NAME    = EARTH
REF_FRAME      = TEME
TIME_SYSTEM    = UTC
MEAN_ELEMENT_THEORY = SGP/SGP4

EPOCH          = 2026-02-24T10:50:48.626880
MEAN_MOTION    = 15.60703861
ECCENTRICITY   = .00029302
INCLINATION    = 51.6276
RA_OF_ASC_NODE = 132.2644
ARG_OF_PERICENTER = 39.4892
MEAN_ANOMALY   = 320.6315

EPHEMERIS_TYPE = 0
CLASSIFICATION_TYPE = U
NORAD_CAT_ID   = 66052
ELEMENT_SET_NO = 999
REV_AT_EPOCH   = 2032
BSTAR          = .52279023E-3
MEAN_MOTION_DOT = .43997E-3
MEAN_MOTION_DDOT = 0

CCSDS_OMM_VERS = 2.0
CREATION_DATE  = 
ORIGINATOR     = 

OBJECT_NAME    = HTV-X1
OBJECT_ID      = 2025-241A
CENTER_NAME    = EARTH
REF_FRAME      = TEME
TIME_SYSTEM    = UTC
MEAN_ELEMENT_THEORY = SGP/SGP4

EPOCH          = 2026-02-24T20:43:31.560672
MEAN_MOTION    = 15.48271528
ECCENTRICITY   = .00083861
INCLINATION    = 51.6318
RA_OF_ASC_NODE = 135.7592
ARG_OF_PERICENTER = 130.0533
MEAN_ANOMALY   = 230.1192

EPHEMERIS_TYPE = 0
CLASSIFICATION_TYPE = U
NORAD_CAT_ID   = 66174
ELEMENT_SET_NO = 999
REV_AT_EPOCH   = 51
BSTAR          = .18823051E-3
MEAN_MOTION_DOT = .9683E-4
MEAN_MOTION_DDOT = 0

CCSDS_OMM_VERS = 2.0
CREATION_DATE  = 
ORIGINATOR     = 

OBJECT_NAME    = SZ-21 MODULE
OBJECT_ID      = 2025-246C
CENTER_NAME    = EARTH
REF_FRAME      = TEME
TIME_SYSTEM    = UTC
MEAN_ELEMENT_THEORY = SGP/SGP4

EPOCH          = 2026-02-25T00:24:03.070944
MEAN_MOTION    = 15.67483837
ECCENTRICITY   = .0001473
INCLINATION    = 41.4748
RA_OF_ASC_NODE = 281.3118
ARG_OF_PERICENTER = 289.6520
MEAN_ANOMALY   = 70.4162

EPHEMERIS_TYPE = 0
CLASSIFICATION_TYPE = U
NORAD_CAT_ID   = 66515
ELEMENT_SET_NO = 999
REV_AT_EPOCH   = 1608
BSTAR          = .27555E-3
MEAN_MOTION_DOT = .30552E-3
MEAN_MOTION_DDOT = 0

CCSDS_OMM_VERS = 2.0
CREATION_DATE  = 
ORIGINATOR     = 

OBJECT_NAME    = SHENZHOU-22
OBJECT_ID      = 2025-272A
CENTER_NAME    = EARTH
REF_FRAME      = TEME
TIME_SYSTEM    = UTC
MEAN_ELEMENT_THEORY = SGP/SGP4

EPOCH          = 2026-02-24T21:57:04.672224
MEAN_MOTION    = 15.60082550
ECCENTRICITY   = .00055515
INCLINATION    = 41.4667
RA_OF_ASC_NODE = 285.8590
ARG_OF_PERICENTER = 189.8936
MEAN_ANOMALY   = 170.1794

EPHEMERIS_TYPE = 0
CLASSIFICATION_TYPE = U
NORAD_CAT_ID   = 66645
ELEMENT_SET_NO = 999
REV_AT_EPOCH   = 26764
BSTAR          = .15030473E-3
MEAN_MOTION_DOT = .12229E-3
MEAN_MOTION_DDOT = 0

CCSDS_OMM_VERS = 2.0
CREATION_DATE  = 
ORIGINATOR     = 

OBJECT_NAME    = SOYUZ-MS 28
OBJECT_ID      = 2025-275A
CENTER_NAME    = EARTH
REF_FRAME      = TEME
TIME_SYSTEM    = UTC
MEAN_ELEMENT_THEORY = SGP/SGP4

EPOCH          = 2026-02-24T20:43:31.559808
MEAN_MOTION    = 15.48271528
ECCENTRICITY   = .0008386
INCLINATION    = 51.6318
RA_OF_ASC_NODE = 135.7592
ARG_OF_PERICENTER = 130.0533
MEAN_ANOMALY   = 230.1192

EPHEMERIS_TYPE = 0
CLASSIFICATION_TYPE = U
NORAD_CAT_ID   = 66664
ELEMENT_SET_NO = 999
REV_AT_EPOCH   = 55434
BSTAR          = .18823E-3
MEAN_MOTION_DOT = .9683E-4
MEAN_MOTION_DDOT = 0

CCSDS_OMM_VERS = 2.0
CREATION_DATE  = 
ORIGINATOR     = 

OBJECT_NAME    = DUPLEX
OBJECT_ID      = 1998-067XS
CENTER_NAME    = EARTH
REF_FRAME      = TEME
TIME_SYSTEM    = UTC
MEAN_ELEMENT_THEORY = SGP/SGP4

EPOCH          = 2026-02-24T11:34:08.583456
MEAN_MOTION    = 15.55269683
ECCENTRICITY   = .0001747
INCLINATION    = 51.6292
RA_OF_ASC_NODE = 135.4660
ARG_OF_PERICENTER = 74.5239
MEAN_ANOMALY   = 285.5945

EPHEMERIS_TYPE = 0
CLASSIFICATION_TYPE = U
NORAD_CAT_ID   = 66906
ELEMENT_SET_NO = 999
REV_AT_EPOCH   = 1307
BSTAR          = .44998E-3
MEAN_MOTION_DOT = .30694E-3
MEAN_MOTION_DDOT = 0

CCSDS_OMM_VERS = 2.0
CREATION_DATE  = 
ORIGINATOR     = 

OBJECT_NAME    = ISS OBJECT XT
OBJECT_ID      = 1998-067XT
CENTER_NAME    = EARTH
REF_FRAME      = TEME
TIME_SYSTEM    = UTC
MEAN_ELEMENT_THEORY = SGP/SGP4

EPOCH          = 2026-02-24T09:10:38.433792
MEAN_MOTION    = 15.65249808
ECCENTRICITY   = .00038526
INCLINATION    = 51.6254
RA_OF_ASC_NODE = 133.2936
ARG_OF_PERICENTER = 5.2885
MEAN_ANOMALY   = 354.8151

EPHEMERIS_TYPE = 0
CLASSIFICATION_TYPE = U
NORAD_CAT_ID   = 66907
ELEMENT_SET_NO = 999
REV_AT_EPOCH   = 1309
BSTAR          = .11134675E-2
MEAN_MOTION_DOT = .113727E-2
MEAN_MOTION_DDOT = 0

CCSDS_OMM_VERS = 2.0
CREATION_DATE  = 
ORIGINATOR     = 

OBJECT_NAME    = ISS OBJECT XU
OBJECT_ID      = 1998-067XU
CENTER_NAME    = EARTH
REF_FRAME      = TEME
TIME_SYSTEM    = UTC
MEAN_ELEMENT_THEORY = SGP/SGP4

EPOCH          = 2026-02-24T06:05:17.052576
MEAN_MOTION    = 15.65299119
ECCENTRICITY   = .0003914
INCLINATION    = 51.6250
RA_OF_ASC_NODE = 133.9315
ARG_OF_PERICENTER = 8.4064
MEAN_ANOMALY   = 351.6996

EPHEMERIS_TYPE = 0
CLASSIFICATION_TYPE = U
NORAD_CAT_ID   = 66908
ELEMENT_SET_NO = 999
REV_AT_EPOCH   = 1307
BSTAR          = .11696E-2
MEAN_MOTION_DOT = .119816E-2
MEAN_MOTION_DDOT = 0

CCSDS_OMM_VERS = 2.0
CREATION_DATE  = 
ORIGINATOR     = 

OBJECT_NAME    = SILVERSAT
OBJECT_ID      = 1998-067XV
CENTER_NAME    = EARTH
REF_FRAME      = TEME
TIME_SYSTEM    = UTC
MEAN_ELEMENT_THEORY = SGP/SGP4

EPOCH          = 2026-02-25T04:01:56.048448
MEAN_MOTION    = 15.67542286
ECCENTRICITY   = .0004881
INCLINATION    = 51.6248
RA_OF_ASC_NODE = 128.7870
ARG_OF_PERICENTER = 7.4136
MEAN_ANOMALY   = 352.6931

EPHEMERIS_TYPE = 0
CLASSIFICATION_TYPE = U
NORAD_CAT_ID   = 66909
ELEMENT_SET_NO = 999
REV_AT_EPOCH   = 1322
BSTAR          = .11104E-2
MEAN_MOTION_DOT = .124609E-2
MEAN_MOTION_DDOT = 0

