1 65941U 98067XN  26056.16534479  .00133972  00000-0  85104-3 0  9999
2 65941  51.6225 121.9980 0005977 359.7830   0.3166 15.75536493 21525
1 65942U 98067XP  26056.16230531  .00847599  35833-3  14499-2 0  9992
2 65942  51.6131 115.8662 0009704  16.1128 344.0189 16.01837079 21603
1 65943U 98067XQ  26055.46986623  .00144724  00000-0  93368-3 0  9993
2 65943  51.6247 125.6186 0006053   5.4532 354.6532 15.75143976 21410
1 66052U 98067XR  26055.45195170  .00043997  00000-0  52279-3 0  9999
2 66052  51.6276 132.2644 0002930  39.4892 320.6315 15.60703861 20323
1 66174U 25241A   26055.86355973  .00009683  00000-0  18823-3 0  9993
2 66174  51.6318 135.7592 0008386 130.0533 230.1192 15.48271528   519
1 66515U 25246C   26056.01670221  .00030552  00000-0  27555-3 0  9992
2 66515  41.4748 281.3118 0001473 289.6520  70.4162 15.67483837 16081
1 66645U 25272A   26055.91463741  .00012229  00000-0  15030-3 0  9996
2 66645  41.4667 285.8590 0005551 189.8936 170.1794 15.60082550267640
1 66664U 25275A   26055.86355972  .00009683  00000-0  18823-3 0  9993
2 66664  51.6318 135.7592 0008386 130.0533 230.1192 15.48271528554348
1 66906U 98067XS  26055.48204379  .00030694  00000-0  44998-3 0  9991
2 66906  51.6292 135.4660 0001747  74.5239 285.5945 15.55269683 13077
1 66907U 98067XT  26055.38238928  .00113727  00000-0  11135-2 0  9993
2 66907  51.6254 133.2936 0003853   5.2885 354.8151 15.65249808 13095
1 66908U 98067XU  26055.25366959  .00119816  00000-0  11696-2 0  9993
2 66908  51.6250 133.9315 0003914   8.4064 351.6996 15.65299119 13072
1 66909U 98067XV  26056.16800982  .00124609  00000-0  11104-2 0  9994
2 66909  51.6248 128.7870 0004881   7.4136 352.6931 15.67542286 13226
